GLOBALSTAR M067         
1 32263U 07048A   25275.71277406 -.00000066  00000+0  23303-3 0  9996
2 32263  51.9717  81.2989 0001015 161.1873 212.6592 12.40678941822831
GLOBALSTAR M070         
1 32264U 07048B   25276.07727053 -.00000067  00000+0  20296-3 0  9994
2 32264  51.9738 159.8250 0000917  62.5938  85.0005 12.62323471827299
GLOBALSTAR M066         
1 32265U 07048C   25275.70612427 -.00000106  00000+0 -95982-4 0  9992
2 32265  51.9586  77.0605 0004293 214.8983 158.3022 12.30377937828531
GLOBALSTAR M068         
1 32266U 07048D   25276.18304593 -.00000013  00000+0  50627-3 0  9990
2 32266  51.9904 333.0492 0001085  37.2254 356.0403 12.62829952831201
GLOBALSTAR M079         
1 37188U 10054A   25276.12355141 -.00000085  00000+0  10387-3 0  9996
2 37188  52.0026 171.2115 0000791  92.8677  53.8918 12.62267394690087
GLOBALSTAR M074         
1 37189U 10054B   25276.06937012 -.00000085  00000+0  10692-3 0  9992
2 37189  52.0006 170.6830 0000627  70.0720  69.6861 12.62271925690681
GLOBALSTAR M076         
1 37190U 10054C   25276.17415303 -.00000086  00000+0  98068-4 0  9995
2 37190  52.0017 170.5452 0000556  91.6604  43.9818 12.62265843690415
GLOBALSTAR M077         
1 37191U 10054D   25261.11398905 -.00000105  00000+0 -68518-5 0  9993
2 37191  52.0064 173.2575 0000611  67.5371  70.5425 12.62323380688888
